[{"OBJECT_NAME":"STARLINK-34568","OBJECT_ID":"2025-142X","EPOCH":"2026-03-09T21:56:50.582976","MEAN_MOTION":14.98333705,"ECCENTRICITY":0.0002501,"INCLINATION":70.0007,"RA_OF_ASC_NODE":313.9237,"ARG_OF_PERICENTER":271.133,"MEAN_ANOMALY":88.9543,"EPHEMERIS_TYPE":0,"CLASSIFICATION_TYPE":"U","NORAD_CAT_ID":64717,"ELEMENT_SET_NO":999,"REV_AT_EPOCH":3952,"BSTAR":0.00031641368,"MEAN_MOTION_DOT":3.685e-5,"MEAN_MOTION_DDOT":0},{"OBJECT_NAME":"DMSP 5D-2 F13 DEB","OBJECT_ID":"1995-015CP","EPOCH":"2026-03-07T12:11:36.379680","MEAN_MOTION":14.97633156,"ECCENTRICITY":0.00060588,"INCLINATION":98.7878,"RA_OF_ASC_NODE":156.2683,"ARG_OF_PERICENTER":182.3212,"MEAN_ANOMALY":177.798,"EPHEMERIS_TYPE":0,"CLASSIFICATION_TYPE":"U","NORAD_CAT_ID":40500,"ELEMENT_SET_NO":999,"REV_AT_EPOCH":57139,"BSTAR":0.013984163,"MEAN_MOTION_DOT":0.00167441,"MEAN_MOTION_DDOT":0}]
